NORAD_CAT_ID,OBJECT_NAME,OBJECT_TYPE,EPOCH,MEAN_MOTION,ECCENTRICITY,INCLINATION,RA_OF_ASC_NODE,ARG_OF_PERICENTER,MEAN_ANOMALY,BSTAR,MEAN_MOTION_DOT,MEAN_MOTION_DDOT,TLE_LINE0,TLE_LINE1,TLE_LINE2,SEMIMAJOR_AXIS,PERIOD,APOGEE,PERIGEE,DECAYED
52368.0,STARLINK-3834,PAYLOAD,2024-01-12 12:00:16,15.08841838,0.0001361,53.2163,122.9525,86.8676,273.2472,4.1041e-05,3.65e-06,0.0,0 STARLINK-3834,1 52368U 22045AP  24012.50019369  .00000365  00000-0  41041-4 0  9997,2 52368  53.2163 122.9525 0001361  86.8676 273.2472 15.08841838 97070,6917.875,95.437,540.681,538.798,0.0
52368.0,STARLINK-3834,PAYLOAD,2024-01-12 13:35:39,15.08842428,0.000139,53.2163,122.6551,84.0475,276.0676,7.6386e-05,9.28e-06,0.0,0 STARLINK-3834,1 52368U 22045AP  24012.56643239  .00000928  00000-0  76386-4 0  9997,2 52368  53.2163 122.6551 0001390  84.0475 276.0676 15.08842428 97089,6917.873,95.437,540.7,538.776,0.0
52368.0,STARLINK-3834,PAYLOAD,2024-01-13 11:51:05,15.08832625,0.0001534,53.2168,118.4906,75.0896,285.0266,-8.4706e-05,-1.636e-05,0.0,0 STARLINK-3834,1 52368U 22045AP  24013.49380867 -.00001636  00000-0 -84706-4 0  9999,2 52368  53.2168 118.4906 0001534  75.0896 285.0266 15.08832625 97227,6917.903,95.438,540.829,538.707,0.0
52368.0,STARLINK-3834,PAYLOAD,2024-01-13 13:26:28,15.08833937,0.0001515,53.2167,118.1931,77.863,282.2532,-6.9252e-05,-1.39e-05,0.0,0 STARLINK-3834,1 52368U 22045AP  24013.56004790 -.00001390  00000-0 -69252-4 0  9991,2 52368  53.2167 118.1931 0001515  77.8630 282.2532 15.08833937 97239,6917.899,95.438,540.812,538.716,0.0
52368.0,STARLINK-3834,PAYLOAD,2024-01-14 13:17:12,15.08865081,0.0001453,53.217,113.732,84.0026,276.1132,0.00025393,3.758e-05,0.0,0 STARLINK-3834,1 52368U 22045AP  24014.55362067  .00003758  00000-0  25393-3 0  9990,2 52368  53.2170 113.7320 0001453  84.0026 276.1132 15.08865081 97385,6917.804,95.436,540.674,538.664,0.0
52368.0,STARLINK-3834,PAYLOAD,2024-01-15 11:32:37,15.0885117,0.0001555,53.2164,109.568,88.553,271.564,0.00027798,4.14e-05,0.0,0 STARLINK-3834,1 52368U 22045AP  24015.48099531  .00004140  00000-0  27798-3 0  9993,2 52368  53.2164 109.5680 0001555  88.5530 271.5640 15.08851170 97525,6917.846,95.437,540.787,538.636,0.0
52368.0,STARLINK-3834,PAYLOAD,2024-01-15 13:08:00,15.08854911,0.0001393,53.2158,109.2734,84.9541,275.161,0.00025569,3.785e-05,0.0,0 STARLINK-3834,1 52368U 22045AP  24015.54723262  .00003785  00000-0  25569-3 0  9993,2 52368  53.2158 109.2734 0001393  84.9541 275.1610 15.08854911 97531,6917.835,95.437,540.663,538.736,0.0
52368.0,STARLINK-3834,PAYLOAD,2024-01-16 11:23:25,15.08841707,0.000165,53.2166,105.1094,92.8072,267.3109,-0.00023352,-4.003e-05,0.0,0 STARLINK-3834,1 52368U 22045AP  24016.47459666 -.00004003  00000-0 -23352-3 0  9994,2 52368  53.2166 105.1094 0001650  92.8072 267.3109 15.08841707 97677,6917.875,95.437,540.882,538.599,0.0
52368.0,STARLINK-3834,PAYLOAD,2024-01-16 14:34:11,15.08843013,0.0001633,53.2168,104.513,95.456,264.6619,-0.00018898,-3.295e-05,0.0,0 STARLINK-3834,1 52368U 22045AP  24016.60707560 -.00003295  00000-0 -18898-3 0  9999,2 52368  53.2168 104.5130 0001633  95.4560 264.6619 15.08843013 97695,6917.871,95.437,540.866,538.606,0.0
52368.0,STARLINK-3834,PAYLOAD,2024-01-17 12:49:35,15.08838918,0.0001659,53.216,100.3578,68.863,291.2539,4.6907e-05,4.59e-06,0.0,0 STARLINK-3834,1 52368U 22045AP  24017.53444403  .00000459  00000-0  46907-4 0  9996,2 52368  53.2160 100.3578 0001659  68.8630 291.2539 15.08838918 97838,6917.884,95.438,540.896,538.601,0.0
52368.0,STARLINK-3834,PAYLOAD,2024-01-18 11:05:00,15.08834838,0.0001695,53.2168,96.187,70.4256,289.6919,0.00011586,1.556e-05,0.0,0 STARLINK-3834,1 52368U 22045AP  24018.46180987  .00001556  00000-0  11586-3 0  9996,2 52368  53.2168  96.1870 0001695  70.4256 289.6919 15.08834838 97971,6917.896,95.438,540.934,538.589,0.0
52368.0,STARLINK-3834,PAYLOAD,2024-01-18 14:15:46,15.08840209,0.0001655,53.2172,95.5986,85.8119,274.3062,7.4843e-05,9.03e-06,0.0,0 STARLINK-3834,1 52368U 22045AP  24018.59428703  .00000903  00000-0  74843-4 0  9992,2 52368  53.2172  95.5986 0001655  85.8119 274.3062 15.08840209 97992,6917.88,95.438,540.89,538.6,0.0
52368.0,STARLINK-3834,PAYLOAD,2024-01-19 10:55:46,15.08850594,0.0001743,53.2169,91.7334,71.9985,288.1197,0.00027043,4.02e-05,0.0,0 STARLINK-3834,1 52368U 22045AP  24019.45540131  .00004020  00000-0  27043-3 0  9991,2 52368  53.2169  91.7334 0001743  71.9985 288.1197 15.08850594 98124,6917.848,95.437,540.919,538.507,0.0
52368.0,STARLINK-3834,PAYLOAD,2024-01-20 10:46:33,15.08838343,0.0001429,53.2164,87.2711,97.6395,262.4759,-1.764e-05,-5.69e-06,0.0,0 STARLINK-3834,1 52368U 22045AP  24020.44900408 -.00000569  00000-0 -17640-4 0  9998,2 52368  53.2164  87.2711 0001429  97.6395 262.4759 15.08838343 98272,6917.885,95.438,540.739,538.762,0.0
52368.0,STARLINK-3834,PAYLOAD,2024-01-20 23:29:38,15.08842626,0.0001481,53.2167,84.8929,90.3448,269.7714,5.1232e-05,5.28e-06,0.0,0 STARLINK-3834,1 52368U 22045AP  24020.97892296  .00000528  00000-0  51232-4 0  9999,2 52368  53.2167  84.8929 0001481  90.3448 269.7714 15.08842626 98355,6917.872,95.437,540.762,538.713,0.0
52368.0,STARLINK-3834,PAYLOAD,2024-01-21 10:37:20,15.08842917,0.0001485,53.2175,82.8121,89.858,270.2582,1.9832e-05,2.8e-07,0.0,0 STARLINK-3834,1 52368U 22045AP  24021.44260388  .00000028  00000-0  19832-4 0  9998,2 52368  53.2175  82.8121 0001485  89.8580 270.2582 15.08842917 98421,6917.871,95.437,540.764,538.709,0.0
52368.0,STARLINK-3834,PAYLOAD,2024-01-21 23:20:26,15.08836863,0.0001491,53.2166,80.4317,96.9848,263.1314,0.00044798,6.848e-05,0.0,0 STARLINK-3834,1 52368U 22045AP  24021.97252642  .00006848  00000-0  44798-3 0  9994,2 52368  53.2166  80.4317 0001491  96.9848 263.1314 15.08836863 98501,6917.89,95.438,540.786,538.724,0.0
52368.0,STARLINK-3834,PAYLOAD,2024-01-22 07:17:21,15.08840586,0.0001475,53.2165,78.9445,98.7128,261.4031,0.00039683,6.033e-05,0.0,0 STARLINK-3834,1 52368U 22045AP  24022.30372576  .00006033  00000-0  39683-3 0  9994,2 52368  53.2165  78.9445 0001475  98.7128 261.4031 15.08840586 98556,6917.879,95.438,540.764,538.723,0.0
52368.0,STARLINK-3834,PAYLOAD,2024-01-22 10:28:07,15.08845235,0.0001508,53.2169,78.3501,103.8149,256.3011,0.00041538,6.33e-05,0.0,0 STARLINK-3834,1 52368U 22045AP  24022.43620329  .00006330  00000-0  41538-3 0  9992,2 52368  53.2169  78.3501 0001508 103.8149 256.3011 15.08845235 98574,6917.864,95.437,540.773,538.686,0.0
52368.0,STARLINK-3834,PAYLOAD,2024-01-23 07:08:08,15.08840649,0.0001811,53.2181,74.4872,113.8594,246.2588,0.00015141,2.122e-05,0.0,0 STARLINK-3834,1 52368U 22045AP  24023.29732260  .00002122  00000-0  15141-3 0  9991,2 52368  53.2181  74.4872 0001811 113.8594 246.2588 15.08840649 98704,6917.878,95.438,540.996,538.491,0.0
52368.0,STARLINK-3834,PAYLOAD,2024-01-23 08:43:31,15.088418,0.0001783,53.2178,74.1891,114.0066,246.1113,0.00012713,1.736e-05,0.0,0 STARLINK-3834,1 52368U 22045AP  24023.36356220  .00001736  00000-0  12713-3 0  9999,2 52368  53.2178  74.1891 0001783 114.0066 246.1113 15.08841800 98717,6917.875,95.437,540.973,538.506,0.0
52368.0,STARLINK-3834,PAYLOAD,2024-01-24 08:34:19,15.08831667,0.0001965,53.2184,69.7309,119.0932,241.0257,-8.6395e-05,-1.663e-05,0.0,0 STARLINK-3834,1 52368U 22045AP  24024.35716919 -.00001663  00000-0 -86395-4 0  9993,2 52368  53.2184  69.7309 0001965 119.0932 241.0257 15.08831667 98866,6917.906,95.438,541.13,538.411,0.0
52368.0,STARLINK-3834,PAYLOAD,2024-01-25 10:00:29,15.08828182,0.000152,53.2174,64.9664,92.2076,267.909,0.00037545,5.69e-05,0.0,0 STARLINK-3834,1 52368U 22045AP  24025.41701282  .00005690  00000-0  37545-3 0  9992,2 52368  53.2174  64.9664 0001520  92.2076 267.9090 15.08828182 99023,6917.917,95.438,540.833,538.73,0.0
52368.0,STARLINK-3834,PAYLOAD,2024-01-26 09:51:17,15.0881621,0.0001895,53.2188,60.5069,68.9755,291.144,0.0006034,9.322e-05,0.0,0 STARLINK-3834,1 52368U 22045AP  24026.41062090  .00009322  00000-0  60340-3 0  9995,2 52368  53.2188  60.5069 0001895  68.9755 291.1440 15.08816210 99171,6917.953,95.439,541.129,538.507,0.0
52368.0,STARLINK-3834,PAYLOAD,2024-01-27 11:17:27,15.08844098,0.0002166,53.2196,55.7406,62.9999,297.1214,2.9357e-05,1.79e-06,0.0,0 STARLINK-3834,1 52368U 22045AP  24027.47045597  .00000179  00000-0  29357-4 0  9990,2 52368  53.2196  55.7406 0002166  62.9999 297.1214 15.08844098 99335,6917.868,95.437,541.231,538.234,0.0
52368.0,STARLINK-3834,PAYLOAD,2024-01-28 11:08:14,15.08849195,0.0001914,53.2194,51.2814,76.309,283.8115,-7.6512e-06,-4.1e-06,0.0,0 STARLINK-3834,1 52368U 22045AP  24028.46405191 -.00000410  00000-0 -76512-5 0  9996,2 52368  53.2194  51.2814 0001914  76.3090 283.8115 15.08849195 99489,6917.852,95.437,541.041,538.393,0.0
52368.0,STARLINK-3834,PAYLOAD,2024-01-29 10:59:01,15.08843644,0.0001826,53.2195,46.8224,101.6845,258.4352,9.5138e-05,1.226e-05,0.0,0 STARLINK-3834,1 52368U 22045AP  24029.45765125  .00001226  00000-0  95138-4 0  9990,2 52368  53.2195  46.8224 0001826 101.6845 258.4352 15.08843644 99638,6917.869,95.437,540.997,538.471,0.0
52368.0,STARLINK-3834,PAYLOAD,2024-01-30 04:28:16,15.08837547,0.0001727,53.2186,43.5501,110.0665,250.0513,3.7285e-05,3.05e-06,0.0,0 STARLINK-3834,1 52368U 22045AP  24030.18629660  .00000305  00000-0  37285-4 0  9991,2 52368  53.2186  43.5501 0001727 110.0665 250.0513 15.08837547 99748,6917.888,95.438,540.948,538.558,0.0
52368.0,STARLINK-3834,PAYLOAD,2024-01-30 07:39:02,15.08838971,0.0001655,53.2189,42.957,88.7733,271.3449,-1.8593e-05,-5.84e-06,0.0,0 STARLINK-3834,1 52368U 22045AP  24030.31877890 -.00000584  00000-0 -18593-4 0  9998,2 52368  53.2189  42.9570 0001655  88.7733 271.3449 15.08838971 99765,6917.884,95.438,540.893,538.604,0.0
52368.0,STARLINK-3834,PAYLOAD,2024-01-31 07:29:49,15.08844457,0.0001659,53.2193,38.5014,84.8242,275.294,9.2077e-05,1.178e-05,0.0,0 STARLINK-3834,1 52368U 22045AP  24031.31237354  .00001178  00000-0  92077-4 0  9991,2 52368  53.2193  38.5014 0001659  84.8242 275.2940 15.08844457 99912,6917.867,95.437,540.879,538.584,0.0
